[
    {
        "Altitude(m)": 604221.2020519163,
        "Argument of Periapsis(deg)": 0.0,
        "Eccentricity": 0.0,
        "Inclination(deg)": 60.0,
        "Latitude(deg)": 14.117232878970546,
        "Longitude(deg)": -146.66582757489456,
        "Mean Anomaly(deg)": 16.363599999999984,
        "RAAN(deg)": 305.0,
        "Satellite Name": "Test1 1343",
        "Satellite Number": 1343,
        "Semi-Major Axis(m)": 6980739.136638005,
        "Time(s)": 0
    },
    {
        "Altitude(m)": 604235.342817679,
        "Argument of Periapsis(deg)": 0.00010418945913296404,
        "Eccentricity": 0.0,
        "Inclination(deg)": 60.0,
        "Latitude(deg)": 14.651629266557824,
        "Longitude(deg)": -146.37737991167296,
        "Mean Anomaly(deg)": 16.983706145461838,
        "RAAN(deg)": 304.99957995086027,
        "Satellite Name": "Test1 1343",
        "Satellite Number": 1343,
        "Semi-Major Axis(m)": 6980739.136638005,
        "Time(s)": 10
    }
]